STARLINK-4548           
1 53431U 22097AV  26068.78410574 -.00000846  00000+0 -35083-4 0  9996
2 53431  53.2161 103.3107 0001003  77.9974 282.1131 15.08842722198801
2024-205L               
1 61904U 24205L   26066.14074752  .00013606  00000+0  79283-3 0  9990
2 61904  97.4213 140.2188 0054772 346.2042  13.7688 15.10822925 72825
